[{"OBJECT_NAME":"ONEWEB-0087","OBJECT_ID":"2020-020AD","EPOCH":"2026-03-09T22:07:20.923680","MEAN_MOTION":13.11414525,"ECCENTRICITY":0.00016051,"INCLINATION":87.8876,"RA_OF_ASC_NODE":40.763,"ARG_OF_PERICENTER":89.6939,"MEAN_ANOMALY":270.4373,"EPHEMERIS_TYPE":0,"CLASSIFICATION_TYPE":"U","NORAD_CAT_ID":45451,"ELEMENT_SET_NO":999,"REV_AT_EPOCH":28957,"BSTAR":0.00064579615,"MEAN_MOTION_DOT":2.42e-6,"MEAN_MOTION_DDOT":0},{"OBJECT_NAME":"THORAD DELTA 1 DEB","OBJECT_ID":"1974-089AK","EPOCH":"2026-03-09T22:01:28.708896","MEAN_MOTION":12.94022955,"ECCENTRICITY":0.01292085,"INCLINATION":102.513,"RA_OF_ASC_NODE":47.4062,"ARG_OF_PERICENTER":347.4889,"MEAN_ANOMALY":69.3089,"EPHEMERIS_TYPE":0,"CLASSIFICATION_TYPE":"U","NORAD_CAT_ID":8169,"ELEMENT_SET_NO":999,"REV_AT_EPOCH":38793,"BSTAR":0.0053228645,"MEAN_MOTION_DOT":1.474e-5,"MEAN_MOTION_DDOT":0}]
